CZ-2D R/B               
1 28738U 05024B   25332.99465430  .00026526  00000+0  43774-3 0  9992
2 28738  97.3648 340.0922 0007465  47.6991 312.4893 15.52224066124128
ALOS (DAICHI)           
1 28931U 06002A   25333.28104467  .00001609  00000+0  28026-3 0  9995
2 28931  98.1075 284.8655 0000715  91.9527 268.1760 14.69420957 58739
H-2A R/B                
1 28932U 06002B   25333.30582896  .00010426  00000+0  55504-3 0  9993
2 28932  98.2309 106.9624 0054442 221.9939 137.7111 15.14152848 79230
RESURS-DK 1             
1 29228U 06021A   25333.20305134  .00003194  00000+0  19149-3 0  9999
2 29228  69.9319 136.8163 0007687 268.3755  91.6530 15.12038268 72339
CZ-4B R/B               
1 29507U 06046C   25333.10394305  .00005252  00000+0  27606-3 0  9997
2 29507  97.5759  13.2797 0032586 255.3264 104.4355 15.15662499 44803
CZ-2C R/B               
1 31114U 07010B   25333.26221697  .00000159  00000+0  92232-4 0  9995
2 31114  98.3970  86.5917 0058257 225.3977 134.2440 14.20200742965466
COSMO-SKYMED 1          
1 31598U 07023A   25333.27434288  .00004457  00000+0  40661-3 0  9991
2 31598  97.8850 158.5863 0001571  88.1120 272.0281 14.95612407999889
COSMOS 2428             
1 31792U 07029A   25333.28675819 -.00000085  00000+0 -20091-4 0  9992
2 31792  70.9375  54.1247 0002926  44.9552 315.1806 14.12886460949912
SL-16 R/B               
1 31793U 07029B   25333.31127503 -.00000135  00000+0 -44917-4 0  9998
2 31793  70.9775  23.3856 0002446 266.0507 164.3108 14.14816869951173
KORONAS-FOTON           
1 33504U 09003A   25333.11770345  .00013091  00000+0  31839-3 0  9991
2 33504  82.4328  20.2152 0012323 152.8306 207.3588 15.40747563930245
CZ-2C R/B               
1 37731U 11030B   25333.28898244  .00001785  00000+0  23303-3 0  9991
2 37731  97.8393 287.6958 0051982 318.5689 136.7109 14.80827713775234
H-2A R/B                
1 38341U 12025E   25333.31502510  .00003049  00000+0  28488-3 0  9990
2 38341  98.4581 287.5134 0043811 281.8122  77.8183 14.94309300733221
