CCSDS_OMM_VERS = 2.0
CREATION_DATE  = 
ORIGINATOR     = 

OBJECT_NAME    = CZ-2D R/B
OBJECT_ID      = 2005-024B
CENTER_NAME    = EARTH
REF_FRAME      = TEME
TIME_SYSTEM    = UTC
MEAN_ELEMENT_THEORY = SGP/SGP4

EPOCH          = 2025-11-28T23:52:18.131520
MEAN_MOTION    = 15.52224066
ECCENTRICITY   = .00074652
INCLINATION    = 97.3648
RA_OF_ASC_NODE = 340.0922
ARG_OF_PERICENTER = 47.6991
MEAN_ANOMALY   = 312.4893

EPHEMERIS_TYPE = 0
CLASSIFICATION_TYPE = U
NORAD_CAT_ID   = 28738
ELEMENT_SET_NO = 999
REV_AT_EPOCH   = 12412
BSTAR          = .43773729E-3
MEAN_MOTION_DOT = .26526E-3
MEAN_MOTION_DDOT = 0

CCSDS_OMM_VERS = 2.0
CREATION_DATE  = 
ORIGINATOR     = 

OBJECT_NAME    = ALOS (DAICHI)
OBJECT_ID      = 2006-002A
CENTER_NAME    = EARTH
REF_FRAME      = TEME
TIME_SYSTEM    = UTC
MEAN_ELEMENT_THEORY = SGP/SGP4

EPOCH          = 2025-11-29T06:44:42.259488
MEAN_MOTION    = 14.69420957
ECCENTRICITY   = .00007152
INCLINATION    = 98.1075
RA_OF_ASC_NODE = 284.8655
ARG_OF_PERICENTER = 91.9527
MEAN_ANOMALY   = 268.1760

EPHEMERIS_TYPE = 0
CLASSIFICATION_TYPE = U
NORAD_CAT_ID   = 28931
ELEMENT_SET_NO = 999
REV_AT_EPOCH   = 5873
BSTAR          = .28026242E-3
MEAN_MOTION_DOT = .1609E-4
MEAN_MOTION_DDOT = 0

CCSDS_OMM_VERS = 2.0
CREATION_DATE  = 
ORIGINATOR     = 

OBJECT_NAME    = H-2A R/B
OBJECT_ID      = 2006-002B
CENTER_NAME    = EARTH
REF_FRAME      = TEME
TIME_SYSTEM    = UTC
MEAN_ELEMENT_THEORY = SGP/SGP4

EPOCH          = 2025-11-29T07:20:23.622144
MEAN_MOTION    = 15.14152848
ECCENTRICITY   = .00544425
INCLINATION    = 98.2309
RA_OF_ASC_NODE = 106.9624
ARG_OF_PERICENTER = 221.9939
MEAN_ANOMALY   = 137.7111

EPHEMERIS_TYPE = 0
CLASSIFICATION_TYPE = U
NORAD_CAT_ID   = 28932
ELEMENT_SET_NO = 999
REV_AT_EPOCH   = 7923
BSTAR          = .55503784E-3
MEAN_MOTION_DOT = .10426E-3
MEAN_MOTION_DDOT = 0

CCSDS_OMM_VERS = 2.0
CREATION_DATE  = 
ORIGINATOR     = 

OBJECT_NAME    = RESURS-DK 1
OBJECT_ID      = 2006-021A
CENTER_NAME    = EARTH
REF_FRAME      = TEME
TIME_SYSTEM    = UTC
MEAN_ELEMENT_THEORY = SGP/SGP4

EPOCH          = 2025-11-29T04:52:23.635776
MEAN_MOTION    = 15.12038268
ECCENTRICITY   = .0007687
INCLINATION    = 69.9319
RA_OF_ASC_NODE = 136.8163
ARG_OF_PERICENTER = 268.3755
MEAN_ANOMALY   = 91.6530

EPHEMERIS_TYPE = 0
CLASSIFICATION_TYPE = U
NORAD_CAT_ID   = 29228
ELEMENT_SET_NO = 999
REV_AT_EPOCH   = 7233
BSTAR          = .19149408E-3
MEAN_MOTION_DOT = .3194E-4
MEAN_MOTION_DDOT = 0

CCSDS_OMM_VERS = 2.0
CREATION_DATE  = 
ORIGINATOR     = 

OBJECT_NAME    = CZ-4B R/B
OBJECT_ID      = 2006-046C
CENTER_NAME    = EARTH
REF_FRAME      = TEME
TIME_SYSTEM    = UTC
MEAN_ELEMENT_THEORY = SGP/SGP4

EPOCH          = 2025-11-29T02:29:40.679520
MEAN_MOTION    = 15.15662499
ECCENTRICITY   = .00325867
INCLINATION    = 97.5759
RA_OF_ASC_NODE = 13.2797
ARG_OF_PERICENTER = 255.3264
MEAN_ANOMALY   = 104.4355

EPHEMERIS_TYPE = 0
CLASSIFICATION_TYPE = U
NORAD_CAT_ID   = 29507
ELEMENT_SET_NO = 999
REV_AT_EPOCH   = 4480
BSTAR          = .2760586E-3
MEAN_MOTION_DOT = .5252E-4
MEAN_MOTION_DDOT = 0

CCSDS_OMM_VERS = 2.0
CREATION_DATE  = 
ORIGINATOR     = 

OBJECT_NAME    = CZ-2C R/B
OBJECT_ID      = 2007-010B
CENTER_NAME    = EARTH
REF_FRAME      = TEME
TIME_SYSTEM    = UTC
MEAN_ELEMENT_THEORY = SGP/SGP4

EPOCH          = 2025-11-29T06:17:35.546208
MEAN_MOTION    = 14.20200742
ECCENTRICITY   = .00582571
INCLINATION    = 98.3970
RA_OF_ASC_NODE = 86.5917
ARG_OF_PERICENTER = 225.3977
MEAN_ANOMALY   = 134.2440

EPHEMERIS_TYPE = 0
CLASSIFICATION_TYPE = U
NORAD_CAT_ID   = 31114
ELEMENT_SET_NO = 999
REV_AT_EPOCH   = 96546
BSTAR          = .92232148E-4
MEAN_MOTION_DOT = .159E-5
MEAN_MOTION_DDOT = 0

CCSDS_OMM_VERS = 2.0
CREATION_DATE  = 
ORIGINATOR     = 

OBJECT_NAME    = COSMO-SKYMED 1
OBJECT_ID      = 2007-023A
CENTER_NAME    = EARTH
REF_FRAME      = TEME
TIME_SYSTEM    = UTC
MEAN_ELEMENT_THEORY = SGP/SGP4

EPOCH          = 2025-11-29T06:35:03.224832
MEAN_MOTION    = 14.95612407
ECCENTRICITY   = .00015712
INCLINATION    = 97.8850
RA_OF_ASC_NODE = 158.5863
ARG_OF_PERICENTER = 88.1120
MEAN_ANOMALY   = 272.0281

EPHEMERIS_TYPE = 0
CLASSIFICATION_TYPE = U
NORAD_CAT_ID   = 31598
ELEMENT_SET_NO = 999
REV_AT_EPOCH   = 99988
BSTAR          = .40661115E-3
MEAN_MOTION_DOT = .4457E-4
MEAN_MOTION_DDOT = 0

CCSDS_OMM_VERS = 2.0
CREATION_DATE  = 
ORIGINATOR     = 

OBJECT_NAME    = COSMOS 2428
OBJECT_ID      = 2007-029A
CENTER_NAME    = EARTH
REF_FRAME      = TEME
TIME_SYSTEM    = UTC
MEAN_ELEMENT_THEORY = SGP/SGP4

EPOCH          = 2025-11-29T06:52:55.907616
MEAN_MOTION    = 14.12886460
ECCENTRICITY   = .00029265
INCLINATION    = 70.9375
RA_OF_ASC_NODE = 54.1247
ARG_OF_PERICENTER = 44.9552
MEAN_ANOMALY   = 315.1806

EPHEMERIS_TYPE = 0
CLASSIFICATION_TYPE = U
NORAD_CAT_ID   = 31792
ELEMENT_SET_NO = 999
REV_AT_EPOCH   = 94991
BSTAR          = -.20091334E-4
MEAN_MOTION_DOT = -.85E-6
MEAN_MOTION_DDOT = 0

CCSDS_OMM_VERS = 2.0
CREATION_DATE  = 
ORIGINATOR     = 

OBJECT_NAME    = SL-16 R/B
OBJECT_ID      = 2007-029B
CENTER_NAME    = EARTH
REF_FRAME      = TEME
TIME_SYSTEM    = UTC
MEAN_ELEMENT_THEORY = SGP/SGP4

EPOCH          = 2025-11-29T07:28:14.162592
MEAN_MOTION    = 14.14816869
ECCENTRICITY   = .00024465
INCLINATION    = 70.9775
RA_OF_ASC_NODE = 23.3856
ARG_OF_PERICENTER = 266.0507
MEAN_ANOMALY   = 164.3108

EPHEMERIS_TYPE = 0
CLASSIFICATION_TYPE = U
NORAD_CAT_ID   = 31793
ELEMENT_SET_NO = 999
REV_AT_EPOCH   = 95117
BSTAR          = -.44916901E-4
MEAN_MOTION_DOT = -.135E-5
MEAN_MOTION_DDOT = 0

CCSDS_OMM_VERS = 2.0
CREATION_DATE  = 
ORIGINATOR     = 

OBJECT_NAME    = KORONAS-FOTON
OBJECT_ID      = 2009-003A
CENTER_NAME    = EARTH
REF_FRAME      = TEME
TIME_SYSTEM    = UTC
MEAN_ELEMENT_THEORY = SGP/SGP4

EPOCH          = 2025-11-29T02:49:29.578080
MEAN_MOTION    = 15.40747563
ECCENTRICITY   = .00123235
INCLINATION    = 82.4328
RA_OF_ASC_NODE = 20.2152
ARG_OF_PERICENTER = 152.8306
MEAN_ANOMALY   = 207.3588

EPHEMERIS_TYPE = 0
CLASSIFICATION_TYPE = U
NORAD_CAT_ID   = 33504
ELEMENT_SET_NO = 999
REV_AT_EPOCH   = 93024
BSTAR          = .3183933E-3
MEAN_MOTION_DOT = .13091E-3
MEAN_MOTION_DDOT = 0

CCSDS_OMM_VERS = 2.0
CREATION_DATE  = 
ORIGINATOR     = 

OBJECT_NAME    = CZ-2C R/B
OBJECT_ID      = 2011-030B
CENTER_NAME    = EARTH
REF_FRAME      = TEME
TIME_SYSTEM    = UTC
MEAN_ELEMENT_THEORY = SGP/SGP4

EPOCH          = 2025-11-29T06:56:08.082816
MEAN_MOTION    = 14.80827713
ECCENTRICITY   = .00519824
INCLINATION    = 97.8393
RA_OF_ASC_NODE = 287.6958
ARG_OF_PERICENTER = 318.5689
MEAN_ANOMALY   = 136.7109

EPHEMERIS_TYPE = 0
CLASSIFICATION_TYPE = U
NORAD_CAT_ID   = 37731
ELEMENT_SET_NO = 999
REV_AT_EPOCH   = 77523
BSTAR          = .23303348E-3
MEAN_MOTION_DOT = .1785E-4
MEAN_MOTION_DDOT = 0

CCSDS_OMM_VERS = 2.0
CREATION_DATE  = 
ORIGINATOR     = 

OBJECT_NAME    = H-2A R/B
OBJECT_ID      = 2012-025E
CENTER_NAME    = EARTH
REF_FRAME      = TEME
TIME_SYSTEM    = UTC
MEAN_ELEMENT_THEORY = SGP/SGP4

EPOCH          = 2025-11-29T07:33:38.168640
MEAN_MOTION    = 14.94309300
ECCENTRICITY   = .00438114
INCLINATION    = 98.4581
RA_OF_ASC_NODE = 287.5134
ARG_OF_PERICENTER = 281.8122
MEAN_ANOMALY   = 77.8183

EPHEMERIS_TYPE = 0
CLASSIFICATION_TYPE = U
NORAD_CAT_ID   = 38341
ELEMENT_SET_NO = 999
REV_AT_EPOCH   = 73322
BSTAR          = .28488321E-3
MEAN_MOTION_DOT = .3049E-4
MEAN_MOTION_DDOT = 0

